NORAD_CAT_ID,OBJECT_NAME,OBJECT_TYPE,EPOCH,MEAN_MOTION,ECCENTRICITY,INCLINATION,RA_OF_ASC_NODE,ARG_OF_PERICENTER,MEAN_ANOMALY,BSTAR,MEAN_MOTION_DOT,MEAN_MOTION_DDOT,TLE_LINE0,TLE_LINE1,TLE_LINE2,SEMIMAJOR_AXIS,PERIOD,APOGEE,PERIGEE,DECAYED
52088.0,STARLINK-3537,PAYLOAD,2023-12-05 17:04:00,15.08849465,0.0001371,53.2192,82.3307,80.7889,279.3258,0.0001678,2.384e-05,0.0,0 STARLINK-3537,1 52088U 22029A   23339.71111770  .00002384  00000-0  16780-3 0  9995,2 52088  53.2192  82.3307 0001371  80.7889 279.3258 15.08849465 97655,6917.851,95.437,540.665,538.768,0.0
52088.0,STARLINK-3537,PAYLOAD,2023-12-06 12:08:37,15.08856708,0.0001314,53.2182,78.7551,94.2015,265.9127,-6.6365e-05,-1.344e-05,0.0,0 STARLINK-3537,1 52088U 22029A   23340.50599529 -.00001344  00000-0 -66365-4 0  9998,2 52088  53.2182  78.7551 0001314  94.2015 265.9127 15.08856708 97779,6917.829,95.436,540.603,538.785,0.0
52088.0,STARLINK-3537,PAYLOAD,2023-12-07 11:59:25,15.08840788,0.0001431,53.2188,74.2965,92.7857,267.3299,-7.3809e-05,-1.462e-05,0.0,0 STARLINK-3537,1 52088U 22029A   23341.49960288 -.00001462  00000-0 -73809-4 0  9993,2 52088  53.2188  74.2965 0001431  92.7857 267.3299 15.08840788 97926,6917.878,95.438,540.733,538.753,0.0
52088.0,STARLINK-3537,PAYLOAD,2023-12-08 13:25:36,15.08836156,0.0001447,53.2188,69.543,72.2107,287.9043,2.2332e-05,6.7e-07,0.0,0 STARLINK-3537,1 52088U 22029A   23342.55944633  .00000067  00000-0  22332-4 0  9990,2 52088  53.2188  69.5430 0001447  72.2107 287.9043 15.08836156 98085,6917.892,95.438,540.758,538.756,0.0
52088.0,STARLINK-3537,PAYLOAD,2023-12-08 15:00:58,15.0887059,0.000152,53.2189,69.245,104.4573,255.6588,-0.00035509,-5.94e-05,0.0,0 STARLINK-3537,1 52088U 22029A   23342.62567421 -.00005940  00000-0 -35509-3 0  9990,2 52088  53.2189  69.2450 0001520 104.4573 255.6588 15.08870590 98099,6917.787,95.436,540.703,538.6,0.0
52088.0,STARLINK-3537,PAYLOAD,2023-12-09 11:41:00,15.08834218,0.0001428,53.2192,65.3803,88.3399,271.7757,6.0493e-05,6.75e-06,0.0,0 STARLINK-3537,1 52088U 22029A   23343.48680798  .00000675  00000-0  60493-4 0  9997,2 52088  53.2192  65.3803 0001428  88.3399 271.7757 15.08834218 98224,6917.898,95.438,540.751,538.775,0.0
52088.0,STARLINK-3537,PAYLOAD,2023-12-09 14:51:46,15.08836479,0.0001479,53.2196,64.7825,84.6277,275.4884,7.4821e-05,9.03e-06,0.0,0 STARLINK-3537,1 52088U 22029A   23343.61928638  .00000903  00000-0  74821-4 0  9994,2 52088  53.2196  64.7825 0001479  84.6277 275.4884 15.08836479 98240,6917.891,95.438,540.779,538.733,0.0
52088.0,STARLINK-3537,PAYLOAD,2023-12-11 11:22:34,15.08841483,0.0001599,53.2199,56.4545,75.6702,284.4468,3.3493e-05,2.45e-06,0.0,0 STARLINK-3537,1 52088U 22029A   23345.47400752  .00000245  00000-0  33493-4 0  9991,2 52088  53.2199  56.4545 0001599  75.6702 284.4468 15.08841483 98526,6917.876,95.437,540.847,538.635,0.0
52088.0,STARLINK-3537,PAYLOAD,2023-12-12 11:13:21,15.08841446,0.0001473,53.2194,52.0023,97.0785,263.0375,1.9911e-05,2.9e-07,0.0,0 STARLINK-3537,1 52088U 22029A   23346.46760768  .00000029  00000-0  19911-4 0  9996,2 52088  53.2194  52.0023 0001473  97.0785 263.0375 15.08841446 98679,6917.876,95.437,540.76,538.722,0.0
52088.0,STARLINK-3537,PAYLOAD,2023-12-13 11:04:08,15.08839245,0.0001503,53.2196,47.5432,102.5143,257.6018,4.1278e-07,-2.81e-06,0.0,0 STARLINK-3537,1 52088U 22029A   23347.46120924 -.00000281  00000-0  41278-6 0  9995,2 52088  53.2196  47.5432 0001503 102.5143 257.6018 15.08839245 98822,6917.883,95.438,540.787,538.708,0.0
52088.0,STARLINK-3537,PAYLOAD,2023-12-14 09:19:32,15.08837494,0.0001542,53.2199,43.3808,109.2293,250.8866,1.4609e-05,-5.5e-07,0.0,0 STARLINK-3537,1 52088U 22029A   23348.38857045 -.00000055  00000-0  14609-4 0  9993,2 52088  53.2199  43.3808 0001542 109.2293 250.8866 15.08837494 98964,6917.888,95.438,540.82,538.686,0.0
52088.0,STARLINK-3537,PAYLOAD,2023-12-15 09:10:19,15.08838144,0.0001517,53.2198,38.9219,112.3312,247.7841,2.6904e-05,1.4e-06,0.0,0 STARLINK-3537,1 52088U 22029A   23349.38217115  .00000140  00000-0  26904-4 0  9997,2 52088  53.2198  38.9219 0001517 112.3312 247.7841 15.08838144 99117,6917.886,95.438,540.801,538.702,0.0
52088.0,STARLINK-3537,PAYLOAD,2023-12-16 10:36:30,15.08836611,0.0001341,53.2187,34.1599,93.1902,266.9243,1.2466e-05,-9e-07,0.0,0 STARLINK-3537,1 52088U 22029A   23350.44201740 -.00000090  00000-0  12466-4 0  9996,2 52088  53.2187  34.1599 0001341  93.1902 266.9243 15.08836611 99273,6917.891,95.438,540.683,538.828,0.0
52088.0,STARLINK-3537,PAYLOAD,2023-12-17 10:27:17,15.08837246,0.0001465,53.2189,29.7003,85.528,274.5879,9.6365e-05,1.246e-05,0.0,0 STARLINK-3537,1 52088U 22029A   23351.43561704  .00001246  00000-0  96365-4 0  9998,2 52088  53.2189  29.7003 0001465  85.5280 274.5879 15.08837246 99428,6917.889,95.438,540.767,538.74,0.0
52088.0,STARLINK-3537,PAYLOAD,2023-12-17 23:10:22,15.08845949,0.0001533,53.219,27.3229,79.5731,280.5434,0.00010203,1.336e-05,0.0,0 STARLINK-3537,1 52088U 22029A   23351.96553311  .00001336  00000-0  10203-3 0  9997,2 52088  53.2190  27.3229 0001533  79.5731 280.5434 15.08845949 99506,6917.862,95.437,540.788,538.667,0.0
52088.0,STARLINK-3537,PAYLOAD,2023-12-18 08:42:40,15.08853359,0.0001625,53.2189,25.5397,76.8909,283.2265,0.00015859,2.238e-05,0.0,0 STARLINK-3537,1 52088U 22029A   23352.36296508  .00002238  00000-0  15859-3 0  9998,2 52088  53.2189  25.5397 0001625  76.8909 283.2265 15.08853359 99561,6917.84,95.437,540.829,538.58,0.0
52088.0,STARLINK-3537,PAYLOAD,2023-12-19 08:33:27,15.08853788,0.0001575,53.2188,21.0793,75.9209,284.1958,-3.766e-06,-3.48e-06,0.0,0 STARLINK-3537,1 52088U 22029A   23353.35656324 -.00000348  00000-0 -37660-5 0  9992,2 52088  53.2188  21.0793 0001575  75.9209 284.1958 15.08853788 99710,6917.838,95.437,540.793,538.614,0.0
52088.0,STARLINK-3537,PAYLOAD,2023-12-20 06:48:52,15.08836438,0.0001851,53.2201,16.9164,117.0746,243.0435,-0.00012924,-2.344e-05,0.0,0 STARLINK-3537,1 52088U 22029A   23354.28393704 -.00002344  00000-0 -12924-3 0  9997,2 52088  53.2201  16.9164 0001851 117.0746 243.0435 15.08836438 99854,6917.891,95.438,541.037,538.476,0.0
52088.0,STARLINK-3537,PAYLOAD,2023-12-21 08:15:01,15.08850982,0.0001472,53.2192,12.1568,103.3969,256.7187,5.9063e-05,6.52e-06,0.0,0 STARLINK-3537,1 52088U 22029A   23355.34376360  .00000652  00000-0  59063-4 0  9998,2 52088  53.2192  12.1568 0001472 103.3969 256.7187 15.08850982100019,6917.847,95.437,540.73,538.694,0.0
52088.0,STARLINK-3537,PAYLOAD,2023-12-22 06:30:26,15.08830985,0.0001454,53.2193,7.9907,96.1758,263.94,4.8166e-05,4.79e-06,0.0,0 STARLINK-3537,1 52088U 22029A   23356.27114344  .00000479  00000-0  48166-4 0  9992,2 52088  53.2193   7.9907 0001454  96.1758 263.9400 15.08830985100158,6917.908,95.438,540.779,538.767,0.0
52088.0,STARLINK-3537,PAYLOAD,2023-12-23 09:32:00,15.08844273,0.0001425,53.2183,2.9329,85.2808,274.8347,-1.3277e-05,-4.99e-06,0.0,0 STARLINK-3537,1 52088U 22029A   23357.39722386 -.00000499  00000-0 -13277-4 0  9996,2 52088  53.2183   2.9329 0001425  85.2808 274.8347 15.08844273100328,6917.867,95.437,540.718,538.747,0.0
52088.0,STARLINK-3537,PAYLOAD,2023-12-24 07:47:23,15.08844711,0.0001542,53.2193,358.7748,95.7889,264.3279,0.000158,2.228e-05,0.0,0 STARLINK-3537,1 52088U 22029A   23358.32458235  .00002228  00000-0  15800-3 0  9992,2 52088  53.2193 358.7748 0001542  95.7889 264.3279 15.08844711100461,6917.866,95.437,540.798,538.664,0.0
52088.0,STARLINK-3537,PAYLOAD,2023-12-24 23:41:15,15.08846497,0.0001584,53.2186,355.8012,85.2969,274.8204,0.00017335,2.472e-05,0.0,0 STARLINK-3537,1 52088U 22029A   23358.98698037  .00002472  00000-0  17335-3 0  9996,2 52088  53.2186 355.8012 0001584  85.2969 274.8204 15.08846497100562,6917.861,95.437,540.821,538.63,0.0
52088.0,STARLINK-3537,PAYLOAD,2023-12-25 09:13:33,15.08861684,0.0001563,53.2184,354.0171,85.3092,274.8079,0.00038166,5.795e-05,0.0,0 STARLINK-3537,1 52088U 22029A   23359.38441284  .00005795  00000-0  38166-3 0  9997,2 52088  53.2184 354.0171 0001563  85.3092 274.8079 15.08861684100624,6917.814,95.436,540.76,538.598,0.0
52088.0,STARLINK-3537,PAYLOAD,2023-12-26 09:04:19,15.08852609,0.0001383,53.2185,349.5571,78.7569,281.3579,1.8987e-05,1.4e-07,0.0,0 STARLINK-3537,1 52088U 22029A   23360.37800380  .00000014  00000-0  18987-4 0  9993,2 52088  53.2185 349.5571 0001383  78.7569 281.3579 15.08852609100774,6917.842,95.437,540.664,538.75,0.0
52088.0,STARLINK-3537,PAYLOAD,2023-12-27 04:08:57,15.08832061,0.0001233,53.2185,345.9861,48.5831,311.5267,-0.00035804,-5.98e-05,0.0,0 STARLINK-3537,1 52088U 22029A   23361.17289066 -.00005980  00000-0 -35804-3 0  9999,2 52088  53.2185 345.9861 0001233  48.5831 311.5267 15.08832061100890,6917.905,95.438,540.623,538.917,0.0
52088.0,STARLINK-3537,PAYLOAD,2023-12-27 08:55:07,15.08831223,0.0001386,53.218,345.0927,102.3236,257.7911,-0.00034735,-5.81e-05,0.0,0 STARLINK-3537,1 52088U 22029A   23361.37161025 -.00005810  00000-0 -34735-3 0  9999,2 52088  53.2180 345.0927 0001386 102.3236 257.7911 15.08831223100926,6917.907,95.438,540.731,538.813,0.0
52088.0,STARLINK-3537,PAYLOAD,2023-12-28 05:35:08,15.08824289,0.0001422,53.218,341.228,101.439,258.6762,9.4618e-05,1.218e-05,0.0,0 STARLINK-3537,1 52088U 22029A   23362.23274141  .00001218  00000-0  94618-4 0  9992,2 52088  53.2180 341.2280 0001422 101.4390 258.6762 15.08824289101051,6917.928,95.439,540.777,538.81,0.0
52088.0,STARLINK-3537,PAYLOAD,2023-12-29 05:25:56,15.08833086,0.000154,53.2184,336.7669,100.8206,259.296,0.00045018,6.883e-05,0.0,0 STARLINK-3537,1 52088U 22029A   23363.22635294  .00006883  00000-0  45018-3 0  9994,2 52088  53.2184 336.7669 0001540 100.8206 259.2960 15.08833086101204,6917.902,95.438,540.832,538.701,0.0
52088.0,STARLINK-3537,PAYLOAD,2023-12-30 03:41:20,15.08843906,0.0001575,53.2191,332.6075,101.5625,258.5545,0.00033631,5.069e-05,0.0,0 STARLINK-3537,1 52088U 22029A   23364.15371246  .00005069  00000-0  33631-3 0  9994,2 52088  53.2191 332.6075 0001575 101.5625 258.5545 15.08843906101347,6917.868,95.437,540.823,538.644,0.0
